{
  "type": "FeatureCollection",
  "features": [
    {
      "type": "Feature",
      "properties": {
        "norad_id": 66998,
        "name": "2025-292F",
        "group": "last-30-days",
        "lat": -50.19355409779032,
        "lon": 83.06736049392555,
        "alt_km": 557.377473803117,
        "timestamp": "2025-12-27T08:36:17.080209+00:00",
        "meta_object_name": "2025-292F",
        "meta_object_id": "2025-292F",
        "meta_epoch": "2025-12-27T04:02:35.763072",
        "meta_mean_motion": 15.04980023,
        "meta_eccentricity": 0.0015501,
        "meta_inclination": 97.6528,
        "meta_ra_of_asc_node": 73.594,
        "meta_arg_of_pericenter": 225.8087,
        "meta_mean_anomaly": 134.1867,
        "meta_ephemeris_type": 0,
        "meta_classification_type": "U",
        "meta_norad_cat_id": 66998,
        "meta_element_set_no": 999,
        "meta_rev_at_epoch": 256,
        "meta_bstar": 0.00053915,
        "meta_mean_motion_dot": 7.607e-05,
        "meta_mean_motion_ddot": 0,
        "tle_line1": "1 66998U 25292F   25361.16846948  .00007607  00000+0  53915-3 0  9996",
        "tle_line2": "2 66998  97.6528  73.5940 0015501 225.8087 134.1867 15.04980023  2564"
      },
      "geometry": {
        "type": "Point",
        "coordinates": [
          83.06736049392555,
          -50.19355409779032
        ]
      }
    },
    {
      "type": "Feature",
      "properties": {
        "norad_id": 66999,
        "name": "2025-292G",
        "group": "last-30-days",
        "lat": -46.353239920210946,
        "lon": 81.89057305646475,
        "alt_km": 557.4412751303862,
        "timestamp": "2025-12-27T08:36:17.080222+00:00",
        "meta_object_name": "2025-292G",
        "meta_object_id": "2025-292G",
        "meta_epoch": "2025-12-27T04:01:33.731328",
        "meta_mean_motion": 15.05044229,
        "meta_eccentricity": 0.0015007,
        "meta_inclination": 97.6537,
        "meta_ra_of_asc_node": 73.5968,
        "meta_arg_of_pericenter": 227.816,
        "meta_mean_anomaly": 132.1792,
        "meta_ephemeris_type": 0,
        "meta_classification_type": "U",
        "meta_norad_cat_id": 66999,
        "meta_element_set_no": 999,
        "meta_rev_at_epoch": 256,
        "meta_bstar": 0.00053406,
        "meta_mean_motion_dot": 7.547e-05,
        "meta_mean_motion_ddot": 0,
        "tle_line1": "1 66999U 25292G   25361.16775152  .00007547  00000+0  53406-3 0  9993",
        "tle_line2": "2 66999  97.6537  73.5968 0015007 227.8160 132.1792 15.05044229  2565"
      },
      "geometry": {
        "type": "Point",
        "coordinates": [
          81.89057305646475,
          -46.353239920210946
        ]
      }
    },
    {
      "type": "Feature",
      "properties": {
        "norad_id": 67000,
        "name": "2025-292H",
        "group": "last-30-days",
        "lat": -45.47117231066858,
        "lon": 81.64769176682515,
        "alt_km": 557.483681869614,
        "timestamp": "2025-12-27T08:36:17.080232+00:00",
        "meta_object_name": "2025-292H",
        "meta_object_id": "2025-292H",
        "meta_epoch": "2025-12-27T04:01:19.788096",
        "meta_mean_motion": 15.05081297,
        "meta_eccentricity": 0.0014956,
        "meta_inclination": 97.6551,
        "meta_ra_of_asc_node": 73.5997,
        "meta_arg_of_pericenter": 227.6808,
        "meta_mean_anomaly": 132.3152,
        "meta_ephemeris_type": 0,
        "meta_classification_type": "U",
        "meta_norad_cat_id": 67000,
        "meta_element_set_no": 999,
        "meta_rev_at_epoch": 243,
        "meta_bstar": 0.00064634,
        "meta_mean_motion_dot": 9.157e-05,
        "meta_mean_motion_ddot": 0,
        "tle_line1": "1 67000U 25292H   25361.16759014  .00009157  00000+0  64634-3 0  9990",
        "tle_line2": "2 67000  97.6551  73.5997 0014956 227.6808 132.3152 15.05081297  2430"
      },
      "geometry": {
        "type": "Point",
        "coordinates": [
          81.64769176682515,
          -45.47117231066858
        ]
      }
    },
    {
      "type": "Feature",
      "properties": {
        "norad_id": 67001,
        "name": "2025-292J",
        "group": "last-30-days",
        "lat": -79.59286232367077,
        "lon": 120.82798354632159,
        "alt_km": 555.3209385990467,
        "timestamp": "2025-12-27T08:36:17.080242+00:00",
        "meta_object_name": "2025-292J",
        "meta_object_id": "2025-292J",
        "meta_epoch": "2025-12-27T04:11:03.749280",
        "meta_mean_motion": 15.04459542,
        "meta_eccentricity": 0.0015218,
        "meta_inclination": 97.6524,
        "meta_ra_of_asc_node": 73.5865,
        "meta_arg_of_pericenter": 217.109,
        "meta_mean_anomaly": 142.9085,
        "meta_ephemeris_type": 0,
        "meta_classification_type": "U",
        "meta_norad_cat_id": 67001,
        "meta_element_set_no": 999,
        "meta_rev_at_epoch": 256,
        "meta_bstar": 0.0005077,
        "meta_mean_motion_dot": 7.059e-05,
        "meta_mean_motion_ddot": 0,
        "tle_line1": "1 67001U 25292J   25361.17434895  .00007059  00000+0  50770-3 0  9994",
        "tle_line2": "2 67001  97.6524  73.5865 0015218 217.1090 142.9085 15.04459542  2561"
      },
      "geometry": {
        "type": "Point",
        "coordinates": [
          120.82798354632159,
          -79.59286232367077
        ]
      }
    },
    {
      "type": "Feature",
      "properties": {
        "norad_id": 67002,
        "name": "ZK-1A R/B",
        "group": "last-30-days",
        "lat": -70.50863449475352,
        "lon": -127.18117940199024,
        "alt_km": 325.90432468492054,
        "timestamp": "2025-12-27T08:36:17.080253+00:00",
        "meta_object_name": "ZK-1A R/B",
        "meta_object_id": "2025-292K",
        "meta_epoch": "2025-12-27T04:25:51.055680",
        "meta_mean_motion": 15.59229474,
        "meta_eccentricity": 0.0203542,
        "meta_inclination": 97.7194,
        "meta_ra_of_asc_node": 75.1645,
        "meta_arg_of_pericenter": 312.5496,
        "meta_mean_anomaly": 45.8729,
        "meta_ephemeris_type": 0,
        "meta_classification_type": "U",
        "meta_norad_cat_id": 67002,
        "meta_element_set_no": 999,
        "meta_rev_at_epoch": 264,
        "meta_bstar": 0.00072117,
        "meta_mean_motion_dot": 0.0015794,
        "meta_mean_motion_ddot": 8.9456e-06,
        "tle_line1": "1 67002U 25292K   25361.18461870  .00157940  89456-5  72117-3 0  9991",
        "tle_line2": "2 67002  97.7194  75.1645 0203542 312.5496  45.8729 15.59229474  2643"
      },
      "geometry": {
        "type": "Point",
        "coordinates": [
          -127.18117940199024,
          -70.50863449475352
        ]
      }
    },
    {
      "type": "Feature",
      "properties": {
        "norad_id": 67003,
        "name": "STARLINK-35660",
        "group": "last-30-days",
        "lat": 3.9825993842257934,
        "lon": -76.9147634727355,
        "alt_km": 360.82294745851505,
        "timestamp": "2025-12-27T08:36:17.080263+00:00",
        "meta_object_name": "STARLINK-35660",
        "meta_object_id": "2025-293A",
        "meta_epoch": "2025-12-27T04:00:01.998720",
        "meta_mean_motion": 15.707793,
        "meta_eccentricity": 0.0003775,
        "meta_inclination": 69.998,
        "meta_ra_of_asc_node": 282.1715,
        "meta_arg_of_pericenter": 269.2183,
        "meta_mean_anomaly": 90.8392,
        "meta_ephemeris_type": 0,
        "meta_classification_type": "U",
        "meta_norad_cat_id": 67003,
        "meta_element_set_no": 999,
        "meta_rev_at_epoch": 248,
        "meta_bstar": -0.01455,
        "meta_mean_motion_dot": -0.0161254,
        "meta_mean_motion_ddot": 0,
        "tle_line1": "1 67003U 25293A   25361.16668980 -.01612540  00000+0 -14550-1 0  9994",
        "tle_line2": "2 67003  69.9980 282.1715 0003775 269.2183  90.8392 15.70779300  2482"
      },
      "geometry": {
        "type": "Point",
        "coordinates": [
          -76.9147634727355,
          3.9825993842257934
        ]
      }
    },
    {
      "type": "Feature",
      "properties": {
        "norad_id": 67004,
        "name": "STARLINK-35913",
        "group": "last-30-days",
        "lat": 5.950590654184889,
        "lon": -76.19392537079413,
        "alt_km": 360.619761960259,
        "timestamp": "2025-12-27T08:36:17.080273+00:00",
        "meta_object_name": "STARLINK-35913",
        "meta_object_id": "2025-293B",
        "meta_epoch": "2025-12-27T04:00:01.998720",
        "meta_mean_motion": 15.70776077,
        "meta_eccentricity": 0.0003657,
        "meta_inclination": 69.9981,
        "meta_ra_of_asc_node": 282.1696,
        "meta_arg_of_pericenter": 269.8282,
        "meta_mean_anomaly": 92.3289,
        "meta_ephemeris_type": 0,
        "meta_classification_type": "U",
        "meta_norad_cat_id": 67004,
        "meta_element_set_no": 999,
        "meta_rev_at_epoch": 248,
        "meta_bstar": -0.014625,
        "meta_mean_motion_dot": -0.01619657,
        "meta_mean_motion_ddot": 0,
        "tle_line1": "1 67004U 25293B   25361.16668980 -.01619657  00000+0 -14625-1 0  9994",
        "tle_line2": "2 67004  69.9981 282.1696 0003657 269.8282  92.3289 15.70776077  2487"
      },
      "geometry": {
        "type": "Point",
        "coordinates": [
          -76.19392537079413,
          5.950590654184889
        ]
      }
    }
  ]
}